CCSDS_OMM_VERS = 2.0
CREATION_DATE  = 
ORIGINATOR     = 

OBJECT_NAME    = COSMOS 1892
OBJECT_ID      = 1987-088A
CENTER_NAME    = EARTH
REF_FRAME      = TEME
TIME_SYSTEM    = UTC
MEAN_ELEMENT_THEORY = SGP/SGP4

EPOCH          = 2025-11-13T01:53:42.421344
MEAN_MOTION    = 15.99576624
ECCENTRICITY   = .0006366
INCLINATION    = 82.4665
RA_OF_ASC_NODE = 77.2101
ARG_OF_PERICENTER = 281.0926
MEAN_ANOMALY   = 78.9635

EPHEMERIS_TYPE = 0
CLASSIFICATION_TYPE = U
NORAD_CAT_ID   = 18421
ELEMENT_SET_NO = 999
REV_AT_EPOCH   = 8656
BSTAR          = .95323E-3
MEAN_MOTION_DOT = .472253E-2
MEAN_MOTION_DDOT = .94138E-4

CCSDS_OMM_VERS = 2.0
CREATION_DATE  = 
ORIGINATOR     = 

OBJECT_NAME    = SL-14 R/B
OBJECT_ID      = 1988-001B
CENTER_NAME    = EARTH
REF_FRAME      = TEME
TIME_SYSTEM    = UTC
MEAN_ELEMENT_THEORY = SGP/SGP4

EPOCH          = 2025-11-13T01:42:35.395200
MEAN_MOTION    = 14.85376747
ECCENTRICITY   = .0016474
INCLINATION    = 82.5107
RA_OF_ASC_NODE = 305.0577
ARG_OF_PERICENTER = 263.6385
MEAN_ANOMALY   = 96.2955

EPHEMERIS_TYPE = 0
CLASSIFICATION_TYPE = U
NORAD_CAT_ID   = 18749
ELEMENT_SET_NO = 999
REV_AT_EPOCH   = 2471
BSTAR          = .13081E-3
MEAN_MOTION_DOT = .1151E-4
MEAN_MOTION_DDOT = 0

CCSDS_OMM_VERS = 2.0
CREATION_DATE  = 
ORIGINATOR     = 

OBJECT_NAME    = COSMOS 1933
OBJECT_ID      = 1988-020A
CENTER_NAME    = EARTH
REF_FRAME      = TEME
TIME_SYSTEM    = UTC
MEAN_ELEMENT_THEORY = SGP/SGP4

EPOCH          = 2025-11-13T03:14:21.003648
MEAN_MOTION    = 15.16779305
ECCENTRICITY   = .0003275
INCLINATION    = 82.5161
RA_OF_ASC_NODE = 6.1220
ARG_OF_PERICENTER = 230.4303
MEAN_ANOMALY   = 129.6641

EPHEMERIS_TYPE = 0
CLASSIFICATION_TYPE = U
NORAD_CAT_ID   = 18958
ELEMENT_SET_NO = 999
REV_AT_EPOCH   = 3255
BSTAR          = .49814E-3
MEAN_MOTION_DOT = .9811E-4
MEAN_MOTION_DDOT = 0

CCSDS_OMM_VERS = 2.0
CREATION_DATE  = 
ORIGINATOR     = 

OBJECT_NAME    = SL-3 R/B
OBJECT_ID      = 1988-032B
CENTER_NAME    = EARTH
REF_FRAME      = TEME
TIME_SYSTEM    = UTC
MEAN_ELEMENT_THEORY = SGP/SGP4

EPOCH          = 2025-11-13T01:50:32.980704
MEAN_MOTION    = 15.18302277
ECCENTRICITY   = .0024889
INCLINATION    = 97.5058
RA_OF_ASC_NODE = 296.0168
ARG_OF_PERICENTER = 281.5896
MEAN_ANOMALY   = 78.2544

EPHEMERIS_TYPE = 0
CLASSIFICATION_TYPE = U
NORAD_CAT_ID   = 19046
ELEMENT_SET_NO = 999
REV_AT_EPOCH   = 3440
BSTAR          = .62633E-3
MEAN_MOTION_DOT = .12892E-3
MEAN_MOTION_DDOT = 0

CCSDS_OMM_VERS = 2.0
CREATION_DATE  = 
ORIGINATOR     = 

OBJECT_NAME    = SL-16 R/B
OBJECT_ID      = 1988-039B
CENTER_NAME    = EARTH
REF_FRAME      = TEME
TIME_SYSTEM    = UTC
MEAN_ELEMENT_THEORY = SGP/SGP4

EPOCH          = 2025-11-13T03:39:04.118400
MEAN_MOTION    = 14.19589571
ECCENTRICITY   = .0021111
INCLINATION    = 71.0143
RA_OF_ASC_NODE = 314.9600
ARG_OF_PERICENTER = 164.9997
MEAN_ANOMALY   = 195.1759

EPHEMERIS_TYPE = 0
CLASSIFICATION_TYPE = U
NORAD_CAT_ID   = 19120
ELEMENT_SET_NO = 999
REV_AT_EPOCH   = 94184
BSTAR          = .45117E-4
MEAN_MOTION_DOT = .47E-6
MEAN_MOTION_DDOT = 0

CCSDS_OMM_VERS = 2.0
CREATION_DATE  = 
ORIGINATOR     = 

OBJECT_NAME    = COSMOS 1953
OBJECT_ID      = 1988-050A
CENTER_NAME    = EARTH
REF_FRAME      = TEME
TIME_SYSTEM    = UTC
MEAN_ELEMENT_THEORY = SGP/SGP4

EPOCH          = 2025-11-13T03:27:51.577344
MEAN_MOTION    = 15.26456815
ECCENTRICITY   = .0012235
INCLINATION    = 82.5071
RA_OF_ASC_NODE = 275.2678
ARG_OF_PERICENTER = 163.9571
MEAN_ANOMALY   = 196.2057

EPHEMERIS_TYPE = 0
CLASSIFICATION_TYPE = U
NORAD_CAT_ID   = 19210
ELEMENT_SET_NO = 999
REV_AT_EPOCH   = 1999
BSTAR          = .44094E-3
MEAN_MOTION_DOT = .11552E-3
MEAN_MOTION_DDOT = 0

CCSDS_OMM_VERS = 2.0
CREATION_DATE  = 
ORIGINATOR     = 

OBJECT_NAME    = SL-8 R/B
OBJECT_ID      = 1988-053B
CENTER_NAME    = EARTH
REF_FRAME      = TEME
TIME_SYSTEM    = UTC
MEAN_ELEMENT_THEORY = SGP/SGP4

EPOCH          = 2025-11-13T04:50:10.927104
MEAN_MOTION    = 14.38834076
ECCENTRICITY   = .0020036
INCLINATION    = 74.0471
RA_OF_ASC_NODE = 327.1620
ARG_OF_PERICENTER = 180.7016
MEAN_ANOMALY   = 251.8824

EPHEMERIS_TYPE = 0
CLASSIFICATION_TYPE = U
NORAD_CAT_ID   = 19257
ELEMENT_SET_NO = 999
REV_AT_EPOCH   = 95984
BSTAR          = .22605E-3
MEAN_MOTION_DOT = .671E-5
MEAN_MOTION_DDOT = 0

CCSDS_OMM_VERS = 2.0
CREATION_DATE  = 
ORIGINATOR     = 

OBJECT_NAME    = COSMOS 1975
OBJECT_ID      = 1988-093A
CENTER_NAME    = EARTH
REF_FRAME      = TEME
TIME_SYSTEM    = UTC
MEAN_ELEMENT_THEORY = SGP/SGP4

EPOCH          = 2025-11-13T03:28:33.466656
MEAN_MOTION    = 15.25806291
ECCENTRICITY   = .0009959
INCLINATION    = 82.5214
RA_OF_ASC_NODE = 234.4371
ARG_OF_PERICENTER = 213.6798
MEAN_ANOMALY   = 146.3809

EPHEMERIS_TYPE = 0
CLASSIFICATION_TYPE = U
NORAD_CAT_ID   = 19573
ELEMENT_SET_NO = 999
REV_AT_EPOCH   = 162
BSTAR          = .76436E-3
MEAN_MOTION_DOT = .19618E-3
MEAN_MOTION_DDOT = 0

CCSDS_OMM_VERS = 2.0
CREATION_DATE  = 
ORIGINATOR     = 

OBJECT_NAME    = SL-14 R/B
OBJECT_ID      = 1988-093B
CENTER_NAME    = EARTH
REF_FRAME      = TEME
TIME_SYSTEM    = UTC
MEAN_ELEMENT_THEORY = SGP/SGP4

EPOCH          = 2025-11-13T01:57:36.593856
MEAN_MOTION    = 14.85504810
ECCENTRICITY   = .0022186
INCLINATION    = 82.5297
RA_OF_ASC_NODE = 151.5002
ARG_OF_PERICENTER = 65.7143
MEAN_ANOMALY   = 56.2459

EPHEMERIS_TYPE = 0
CLASSIFICATION_TYPE = U
NORAD_CAT_ID   = 19574
ELEMENT_SET_NO = 999
REV_AT_EPOCH   = 98372
BSTAR          = .11639E-3
MEAN_MOTION_DOT = .1033E-4
MEAN_MOTION_DDOT = 0

CCSDS_OMM_VERS = 2.0
CREATION_DATE  = 
ORIGINATOR     = 

OBJECT_NAME    = SL-16 R/B
OBJECT_ID      = 1988-102B
CENTER_NAME    = EARTH
REF_FRAME      = TEME
TIME_SYSTEM    = UTC
MEAN_ELEMENT_THEORY = SGP/SGP4

EPOCH          = 2025-11-12T12:12:42.263136
MEAN_MOTION    = 14.16130229
ECCENTRICITY   = .00147893
INCLINATION    = 71.0011
RA_OF_ASC_NODE = 38.0505
ARG_OF_PERICENTER = 198.8118
MEAN_ANOMALY   = 161.2461

EPHEMERIS_TYPE = 0
CLASSIFICATION_TYPE = U
NORAD_CAT_ID   = 19650
ELEMENT_SET_NO = 999
REV_AT_EPOCH   = 91030
BSTAR          = -.18882054E-4
MEAN_MOTION_DOT = -.85E-6
MEAN_MOTION_DDOT = 0

CCSDS_OMM_VERS = 2.0
CREATION_DATE  = 
ORIGINATOR     = 

OBJECT_NAME    = INTERCOSMOS 24
OBJECT_ID      = 1989-080A
CENTER_NAME    = EARTH
REF_FRAME      = TEME
TIME_SYSTEM    = UTC
MEAN_ELEMENT_THEORY = SGP/SGP4

EPOCH          = 2025-11-13T02:36:00.055872
MEAN_MOTION    = 12.59373351
ECCENTRICITY   = .1188096
INCLINATION    = 82.6070
RA_OF_ASC_NODE = 180.2204
ARG_OF_PERICENTER = 203.2577
MEAN_ANOMALY   = 151.0229

EPHEMERIS_TYPE = 0
CLASSIFICATION_TYPE = U
NORAD_CAT_ID   = 20261
ELEMENT_SET_NO = 999
REV_AT_EPOCH   = 65212
BSTAR          = .38518E-3
MEAN_MOTION_DOT = .1307E-4
MEAN_MOTION_DDOT = 0

CCSDS_OMM_VERS = 2.0
CREATION_DATE  = 
ORIGINATOR     = 

OBJECT_NAME    = SL-14 R/B
OBJECT_ID      = 1989-080C
CENTER_NAME    = EARTH
REF_FRAME      = TEME
TIME_SYSTEM    = UTC
MEAN_ELEMENT_THEORY = SGP/SGP4

EPOCH          = 2025-11-12T17:46:26.694336
MEAN_MOTION    = 12.50380342
ECCENTRICITY   = .12312674
INCLINATION    = 82.5932
RA_OF_ASC_NODE = 248.2714
ARG_OF_PERICENTER = 92.1214
MEAN_ANOMALY   = 282.1007

EPHEMERIS_TYPE = 0
CLASSIFICATION_TYPE = U
NORAD_CAT_ID   = 20262
ELEMENT_SET_NO = 999
REV_AT_EPOCH   = 64553
BSTAR          = .15739048E-3
MEAN_MOTION_DOT = .554E-5
MEAN_MOTION_DDOT = 0

