COSMOS 1892             
1 18421U 87088A   25317.07896321  .00472253  94138-4  95323-3 0  9998
2 18421  82.4665  77.2101 0006366 281.0926  78.9635 15.99576624 86563
SL-14 R/B               
1 18749U 88001B   25317.07124300  .00001151  00000+0  13081-3 0  9994
2 18749  82.5107 305.0577 0016474 263.6385  96.2955 14.85376747 24718
COSMOS 1933             
1 18958U 88020A   25317.13496532  .00009811  00000+0  49814-3 0  9997
2 18958  82.5161   6.1220 0003275 230.4303 129.6641 15.16779305 32557
SL-3 R/B                
1 19046U 88032B   25317.07677061  .00012892  00000+0  62633-3 0  9997
2 19046  97.5058 296.0168 0024889 281.5896  78.2544 15.18302277 34405
SL-16 R/B               
1 19120U 88039B   25317.15213100  .00000047  00000+0  45117-4 0  9994
2 19120  71.0143 314.9600 0021111 164.9997 195.1759 14.19589571941848
COSMOS 1953             
1 19210U 88050A   25317.14434696  .00011552  00000+0  44094-3 0  9996
2 19210  82.5071 275.2678 0012235 163.9571 196.2057 15.26456815 19991
SL-8 R/B                
1 19257U 88053B   25317.20151536  .00000671  00000+0  22605-3 0  9990
2 19257  74.0471 327.1620 0020036 180.7016 251.8824 14.38834076959843
COSMOS 1975             
1 19573U 88093A   25317.14483179  .00019618  00000+0  76436-3 0  9991
2 19573  82.5214 234.4371 0009959 213.6798 146.3809 15.25806291  1620
SL-14 R/B               
1 19574U 88093B   25317.08167354  .00001033  00000+0  11639-3 0  9995
2 19574  82.5297 151.5002 0022186  65.7143  56.2459 14.85504810983726
SL-16 R/B               
1 19650U 88102B   25316.50882249 -.00000085  00000+0 -18882-4 0  9990
2 19650  71.0011  38.0505 0014789 198.8118 161.2461 14.16130229910302
INTERCOSMOS 24          
1 20261U 89080A   25317.10833398  .00001307  00000+0  38518-3 0  9997
2 20261  82.6070 180.2204 1188096 203.2577 151.0229 12.59373351652127
SL-14 R/B               
1 20262U 89080C   25316.74058674  .00000554  00000+0  15739-3 0  9996
2 20262  82.5932 248.2714 1231267  92.1214 282.1007 12.50380342645533
